ONEWEB-0018             
1 45434U 20020L   25072.15652514  .00000114  00000+0  28489-3 0  9998
2 45434  87.8824 112.9726 0002031  94.1696 265.9664 13.11419088242213
ONEWEB-0083             
1 45435U 20020M   25072.14634350 -.00000277  00000+0 -81778-3 0  9998
2 45435  87.8824 112.9583 0001907  95.4655 264.6690 13.11419161242256
ONEWEB-0095             
1 45436U 20020N   25072.13799316 -.00000563  00000+0 -16234-2 0  9994
2 45436  87.8821 112.9881 0001235 107.3392 252.7871 13.11415581242251
ONEWEB-0092             
1 45437U 20020P   25072.18620349  .00000382  00000+0  10432-2 0  9990
2 45437  87.8821 112.9658 0001746 102.2511 257.8813 13.11415097242364
ONEWEB-0085             
1 45438U 20020Q   25072.13955940 -.00000414  00000+0 -12033-2 0  9991
2 45438  87.8825 112.9847 0002041  96.1386 263.9974 13.11417929242259
ONEWEB-0096             
1 45439U 20020R   25072.14804591 -.00000324  00000+0 -94926-3 0  9990
2 45439  87.8824 112.9500 0002214  98.1726 261.9653 13.11419199242249
ONEWEB-0037             
1 45440U 20020S   25071.82419678 -.00000654  00000+0 -18825-2 0  9993
2 45440  87.8815 112.9824 0001885  99.1685 260.9656 13.11414813242226
ONEWEB-0042             
1 45441U 20020T   25071.83252815 -.00000760  00000+0 -21800-2 0  9998
2 45441  87.8824 113.0242 0002060 100.3640 259.7720 13.11415831242190
